[{"OBJECT_NAME":"GRUS-1A","OBJECT_ID":"2018-111Q","EPOCH":"2026-03-09T23:18:05.956128","MEAN_MOTION":14.98893897,"ECCENTRICITY":0.00097781,"INCLINATION":97.4655,"RA_OF_ASC_NODE":300.3513,"ARG_OF_PERICENTER":128.8058,"MEAN_ANOMALY":231.404,"EPHEMERIS_TYPE":0,"CLASSIFICATION_TYPE":"U","NORAD_CAT_ID":43890,"ELEMENT_SET_NO":999,"REV_AT_EPOCH":39284,"BSTAR":0.00022419467,"MEAN_MOTION_DOT":2.655e-5,"MEAN_MOTION_DDOT":0},{"OBJECT_NAME":"STARLINK-5896","OBJECT_ID":"2023-037S","EPOCH":"2026-03-09T23:17:26.832480","MEAN_MOTION":14.98332887,"ECCENTRICITY":0.00026752,"INCLINATION":70.0007,"RA_OF_ASC_NODE":283.6953,"ARG_OF_PERICENTER":261.1258,"MEAN_ANOMALY":98.9598,"EPHEMERIS_TYPE":0,"CLASSIFICATION_TYPE":"U","NORAD_CAT_ID":55930,"ELEMENT_SET_NO":999,"REV_AT_EPOCH":16402,"BSTAR":0.00045394932,"MEAN_MOTION_DOT":5.328e-5,"MEAN_MOTION_DDOT":0}]
